{"type": "FeatureCollection", "features": [ {"type": "Feature", "properties": {"norad_id": 33153, "name": "INTELSAT 25 (IS-25)", "group": "intelsat", "lat": 1.4793835827275787, "lon": -138.63003927418615, "alt_km": 35772.880131408296, "timestamp": "2025-12-26T10:30:49.927173+00:00", "meta": {"OBJECT_NAME": "INTELSAT 25 (IS-25)", "OBJECT_ID": "2008-034A", "EPOCH": "2025-12-26T00:24:38.640096", "MEAN_MOTION": 1.00271587, "ECCENTRICITY": 0.0004961, "INCLINATION": 2.2599, "RA_OF_ASC_NODE": 82.5049, "ARG_OF_PERICENTER": 190.2408, "MEAN_ANOMALY": 156.6895, "EPHEMERIS_TYPE": 0, "CLASSIFICATION_TYPE": "U", "NORAD_CAT_ID": 33153, "ELEMENT_SET_NO": 999, "REV_AT_EPOCH": 6395, "BSTAR": 0, "MEAN_MOTION_DOT": -2.03e-06, "MEAN_MOTION_DDOT": 0}, "tle": {"line1": "1 33153U 08034A   25360.01711389 -.00000203  00000+0  00000+0 0  9990", "line2": "2 33153   2.2599  82.5049 0004961 190.2408 156.6895  1.00271587 63950"}}, "geometry": {"type": "Point", "coordinates": [-138.63003927418615, 1.4793835827275787]}}, {"type": "Feature", "properties": {"norad_id": 33376, "name": "GALAXY 19 (G-19)", "group": "intelsat", "lat": -0.020430396574839162, "lon": 155.85639500521074, "alt_km": 35793.09041245891, "timestamp": "2025-12-26T10:30:49.927185+00:00", "meta": {"OBJECT_NAME": "GALAXY 19 (G-19)", "OBJECT_ID": "2008-045A", "EPOCH": "2025-12-26T04:39:22.088160", "MEAN_MOTION": 1.00271724, "ECCENTRICITY": 0.0002782, "INCLINATION": 0.0391, "RA_OF_ASC_NODE": 264.5488, "ARG_OF_PERICENTER": 17.709, "MEAN_ANOMALY": 145.525, "EPHEMERIS_TYPE": 0, "CLASSIFICATION_TYPE": "U", "NORAD_CAT_ID": 33376, "ELEMENT_SET_NO": 999, "REV_AT_EPOCH": 6316, "BSTAR": 0, "MEAN_MOTION_DOT": -1.17e-06, "MEAN_MOTION_DDOT": 0}, "tle": {"line1": "1 33376U 08045A   25360.19400565 -.00000117  00000+0  00000+0 0  9993", "line2": "2 33376   0.0391 264.5488 0002782  17.7090 145.5250  1.00271724 63169"}}, "geometry": {"type": "Point", "coordinates": [155.85639500521074, -0.020430396574839162]}}, {"type": "Feature", "properties": {"norad_id": 35493, "name": "FM-5", "group": "intelsat", "lat": -0.004333125806791078, "lon": 166.7280574771742, "alt_km": 35783.45933680997, "timestamp": "2025-12-26T10:30:49.927197+00:00", "meta": {"OBJECT_NAME": "FM-5", "OBJECT_ID": "2009-034A", "EPOCH": "2025-12-25T21:13:02.840160", "MEAN_MOTION": 1.00269478, "ECCENTRICITY": 7.9e-05, "INCLINATION": 0.0148, "RA_OF_ASC_NODE": 303.8545, "ARG_OF_PERICENTER": 217.7513, "MEAN_ANOMALY": 165.1409, "EPHEMERIS_TYPE": 0, "CLASSIFICATION_TYPE": "U", "NORAD_CAT_ID": 35493, "ELEMENT_SET_NO": 999, "REV_AT_EPOCH": 4490, "BSTAR": 0, "MEAN_MOTION_DOT": -1.78e-06, "MEAN_MOTION_DDOT": 0}, "tle": {"line1": "1 35493U 09034A   25359.88406065 -.00000178  00000+0  00000+0 0  9996", "line2": "2 35493   0.0148 303.8545 0000790 217.7513 165.1409  1.00269478 44909"}}, "geometry": {"type": "Point", "coordinates": [166.7280574771742, -0.004333125806791078]}}, {"type": "Feature", "properties": {"norad_id": 36097, "name": "INTELSAT 14 (IS-14)", "group": "intelsat", "lat": -0.0009475914425005553, "lon": -152.14433932087846, "alt_km": 35783.00787205157, "timestamp": "2025-12-26T10:30:49.927209+00:00", "meta": {"OBJECT_NAME": "INTELSAT 14 (IS-14)", "OBJECT_ID": "2009-064A", "EPOCH": "2025-12-26T00:32:38.586048", "MEAN_MOTION": 1.00271927, "ECCENTRICITY": 0.0002608, "INCLINATION": 0.0118, "RA_OF_ASC_NODE": 36.2145, "ARG_OF_PERICENTER": 245.4938, "MEAN_ANOMALY": 136.2264, "EPHEMERIS_TYPE": 0, "CLASSIFICATION_TYPE": "U", "NORAD_CAT_ID": 36097, "ELEMENT_SET_NO": 999, "REV_AT_EPOCH": 5886, "BSTAR": 0, "MEAN_MOTION_DOT": -2.52e-06, "MEAN_MOTION_DDOT": 0}, "tle": {"line1": "1 36097U 09064A   25360.02266882 -.00000252  00000+0  00000+0 0  9992", "line2": "2 36097   0.0118  36.2145 0002608 245.4938 136.2264  1.00271927 58869"}}, "geometry": {"type": "Point", "coordinates": [-152.14433932087846, -0.0009475914425005553]}}, {"type": "Feature", "properties": {"norad_id": 36106, "name": "INTELSAT 15 (IS-15)", "group": "intelsat", "lat": -0.025333905014805817, "lon": -21.94321889586683, "alt_km": 35780.1049980914, "timestamp": "2025-12-26T10:30:49.927221+00:00", "meta": {"OBJECT_NAME": "INTELSAT 15 (IS-15)", "OBJECT_ID": "2009-067A", "EPOCH": "2025-12-25T23:44:26.930112", "MEAN_MOTION": 1.00270241, "ECCENTRICITY": 0.0002418, "INCLINATION": 0.0146, "RA_OF_ASC_NODE": 50.2758, "ARG_OF_PERICENTER": 236.8564, "MEAN_ANOMALY": 248.8743, "EPHEMERIS_TYPE": 0, "CLASSIFICATION_TYPE": "U", "NORAD_CAT_ID": 36106, "ELEMENT_SET_NO": 999, "REV_AT_EPOCH": 3949, "BSTAR": 0, "MEAN_MOTION_DOT": -1.63e-06, "MEAN_MOTION_DDOT": 0}, "tle": {"line1": "1 36106U 09067A   25359.98920058 -.00000163  00000+0  00000+0 0  9992", "line2": "2 36106   0.0146  50.2758 0002418 236.8564 248.8743  1.00270241 39493"}}, "geometry": {"type": "Point", "coordinates": [-21.94321889586683, -0.025333905014805817]}}, {"type": "Feature", "properties": {"norad_id": 36131, "name": "DIRECTV 12", "group": "intelsat", "lat": 0.01717515489799324, "lon": 150.1766305416993, "alt_km": 35787.737117811346, "timestamp": "2025-12-26T10:30:49.927232+00:00", "meta": {"OBJECT_NAME": "DIRECTV 12", "OBJECT_ID": "2009-075A", "EPOCH": "2025-12-25T14:17:27.635136", "MEAN_MOTION": 1.00273448, "ECCENTRICITY": 5.26e-05, "INCLINATION": 0.0362, "RA_OF_ASC_NODE": 165.2057, "ARG_OF_PERICENTER": 147.3669, "MEAN_ANOMALY": 253.4343, "EPHEMERIS_TYPE": 0, "CLASSIFICATION_TYPE": "U", "NORAD_CAT_ID": 36131, "ELEMENT_SET_NO": 999, "REV_AT_EPOCH": 4481, "BSTAR": 0, "MEAN_MOTION_DOT": -8.2e-07, "MEAN_MOTION_DDOT": 0}, "tle": {"line1": "1 36131U 09075A   25359.59545874 -.00000082  00000+0  00000+0 0  9995", "line2": "2 36131   0.0362 165.2057 0000526 147.3669 253.4343  1.00273448 44812"}}, "geometry": {"type": "Point", "coordinates": [150.1766305416993, 0.01717515489799324]}}, {"type": "Feature", "properties": {"norad_id": 36397, "name": "INTELSAT 16 (IS-16)", "group": "intelsat", "lat": 0.003791461071767208, "lon": 176.6789614837463, "alt_km": 35786.801267297, "timestamp": "2025-12-26T10:30:49.927244+00:00", "meta": {"OBJECT_NAME": "INTELSAT 16 (IS-16)", "OBJECT_ID": "2010-006A", "EPOCH": "2025-12-26T00:38:13.355808", "MEAN_MOTION": 1.0027194, "ECCENTRICITY": 0.0001985, "INCLINATION": 0.0099, "RA_OF_ASC_NODE": 0.2244, "ARG_OF_PERICENTER": 271.3681, "MEAN_ANOMALY": 116.5581, "EPHEMERIS_TYPE": 0, "CLASSIFICATION_TYPE": "U", "NORAD_CAT_ID": 36397, "ELEMENT_SET_NO": 999, "REV_AT_EPOCH": 5791, "BSTAR": 0, "MEAN_MOTION_DOT": -2.23e-06, "MEAN_MOTION_DDOT": 0}, "tle": {"line1": "1 36397U 10006A   25360.02654347 -.00000223  00000+0  00000+0 0  9998", "line2": "2 36397   0.0099   0.2244 0001985 271.3681 116.5581  1.00271940 57914"}}, "geometry": {"type": "Point", "coordinates": [176.6789614837463, 0.003791461071767208]}}, {"type": "Feature", "properties": {"norad_id": 37185, "name": "XM-5", "group": "intelsat", "lat": -0.029950144088470087, "lon": 137.68413173639902, "alt_km": 35777.63633306827, "timestamp": "2025-12-26T10:30:49.927256+00:00", "meta": {"OBJECT_NAME": "XM-5", "OBJECT_ID": "2010-053A", "EPOCH": "2025-12-26T04:39:38.472192", "MEAN_MOTION": 1.00272229, "ECCENTRICITY": 0.0002048, "INCLINATION": 0.0643, "RA_OF_ASC_NODE": 269.1898, "ARG_OF_PERICENTER": 243.8703, "MEAN_ANOMALY": 256.5988, "EPHEMERIS_TYPE": 0, "CLASSIFICATION_TYPE": "U", "NORAD_CAT_ID": 37185, "ELEMENT_SET_NO": 999, "REV_AT_EPOCH": 5574, "BSTAR": 0, "MEAN_MOTION_DOT": -1e-08, "MEAN_MOTION_DDOT": 0}, "tle": {"line1": "1 37185U 10053A   25360.19419528 -.00000001  00000+0  00000+0 0  9998", "line2": "2 37185   0.0643 269.1898 0002048 243.8703 256.5988  1.00272229 55742"}}, "geometry": {"type": "Point", "coordinates": [137.68413173639902, -0.029950144088470087]}}, {"type": "Feature", "properties": {"norad_id": 37238, "name": "INTELSAT 17 (IS-17)", "group": "intelsat", "lat": -0.03745232081866601, "lon": -41.127063647201595, "alt_km": 35775.24523616351, "timestamp": "2025-12-26T10:30:49.927268+00:00", "meta": {"OBJECT_NAME": "INTELSAT 17 (IS-17)", "OBJECT_ID": "2010-065B", "EPOCH": "2025-12-26T02:10:38.891424", "MEAN_MOTION": 1.00271955, "ECCENTRICITY": 0.0002831, "INCLINATION": 0.028, "RA_OF_ASC_NODE": 73.4658, "ARG_OF_PERICENTER": 219.704, "MEAN_ANOMALY": 260.3074, "EPHEMERIS_TYPE": 0, "CLASSIFICATION_TYPE": "U", "NORAD_CAT_ID": 37238, "ELEMENT_SET_NO": 999, "REV_AT_EPOCH": 5151, "BSTAR": 0, "MEAN_MOTION_DOT": 0, "MEAN_MOTION_DDOT": 0}, "tle": {"line1": "1 37238U 10065B   25360.09072791  .00000000  00000+0  00000+0 0  9994", "line2": "2 37238   0.0280  73.4658 0002831 219.7040 260.3074  1.00271955 51519"}}, "geometry": {"type": "Point", "coordinates": [-41.127063647201595, -0.03745232081866601]}}, {"type": "Feature", "properties": {"norad_id": 37392, "name": "INTELSAT 28 (IS-28)", "group": "intelsat", "lat": 0.9302263209376057, "lon": -138.84489604794078, "alt_km": 35776.12628275963, "timestamp": "2025-12-26T10:30:49.927280+00:00", "meta": {"OBJECT_NAME": "INTELSAT 28 (IS-28)", "OBJECT_ID": "2011-016A", "EPOCH": "2025-12-26T00:24:38.640096", "MEAN_MOTION": 1.00271568, "ECCENTRICITY": 0.0003797, "INCLINATION": 1.3569, "RA_OF_ASC_NODE": 84.9113, "ARG_OF_PERICENTER": 188.0675, "MEAN_ANOMALY": 156.2464, "EPHEMERIS_TYPE": 0, "CLASSIFICATION_TYPE": "U", "NORAD_CAT_ID": 37392, "ELEMENT_SET_NO": 999, "REV_AT_EPOCH": 5154, "BSTAR": 0, "MEAN_MOTION_DOT": -2.03e-06, "MEAN_MOTION_DDOT": 0}, "tle": {"line1": "1 37392U 11016A   25360.01711389 -.00000203  00000+0  00000+0 0  9993", "line2": "2 37392   1.3569  84.9113 0003797 188.0675 156.2464  1.00271568 51540"}}, "geometry": {"type": "Point", "coordinates": [-138.84489604794078, 0.9302263209376057]}}]}